0 PEGASUS DEB
1 39322U 94029AFH 13287.91990347  .00001877  00000-0  43454-3 0    16
2 39322 081.9381 156.5134 0302230 304.1982 053.0944 14.30375094544209
